0 LEMUR 2 AMANDA-SVANTE
1 48269U 21034B   24051.75290686  .00007951  00000-0  70989-3 0  9992
2 48269  97.6784 119.2931 0002942 178.9633 181.1595 14.96196210152920
0 LEMUR 2 AMANDA-SVANTE
1 48269U 21034B   24052.15417227  .00007659  00000-0  68398-3 0  9995
2 48269  97.6782 119.6867 0002954 179.2475 180.8751 14.96202179152989
0 LEMUR 2 AMANDA-SVANTE
1 48269U 21034B   24052.75606739  .00006496  00000-0  58083-3 0  9997
2 48269  97.6780 120.2770 0002992 178.0756 182.0478 14.96209919153079
0 LEMUR 2 AMANDA-SVANTE
1 48269U 21034B   24053.15732890  .00006683  00000-0  59733-3 0  9991
2 48269  97.6776 120.6705 0002990 177.7064 182.4171 14.96216223153139
0 LEMUR 2 AMANDA-SVANTE
1 48269U 21034B   24053.42483552  .00006796  00000-0  60722-3 0  9994
2 48269  97.6775 120.9329 0003104 177.3136 182.8103 14.96220288153176
0 LEMUR 2 AMANDA-SVANTE
1 48269U 21034B   24053.75921810  .00006849  00000-0  61182-3 0  9994
2 48269  97.6773 121.2609 0003118 177.2889 182.8350 14.96225279153223
0 LEMUR 2 AMANDA-SVANTE
1 48269U 21034B   24054.16047601  .00006376  00000-0  56995-3 0  9998
2 48269  97.6770 121.6543 0003153 177.2103 182.9136 14.96229971153281
0 LEMUR 2 AMANDA-SVANTE
1 48269U 21034B   24054.76235976  .00007244  00000-0  64654-3 0  9994
2 48269  97.6768 122.2447 0003192 176.2482 183.8764 14.96239837153379
0 LEMUR 2 AMANDA-SVANTE
1 48269U 21034B   24055.16361388  .00007027  00000-0  62731-3 0  9999
2 48269  97.6765 122.6382 0003219 175.5720 184.5530 14.96245078153435
0 LEMUR 2 AMANDA-SVANTE
1 48269U 21034B   24055.63174182  .00008139  00000-0  72546-3 0  9995
2 48269  97.6762 123.0973 0003266 174.4309 185.6950 14.96253246153508
0 LEMUR 2 AMANDA-SVANTE
1 48269U 21034B   24056.16674230  .00008812  00000-0  78481-3 0  9995
2 48269  97.6758 123.6220 0003287 173.4657 186.6607 14.96262004153582
0 LEMUR 2 AMANDA-SVANTE
1 48269U 21034B   24056.43424144  .00008498  00000-0  75703-3 0  9996
2 48269  97.6757 123.8841 0003368 172.4176 187.7097 14.96265395153623
0 LEMUR 2 AMANDA-SVANTE
1 48269U 21034B   24056.90236238  .00009648  00000-0  85837-3 0  9990
2 48269  97.6755 124.3434 0003372 172.0844 188.0431 14.96275030153698
0 LEMUR 2 AMANDA-SVANTE
1 48269U 21034B   24057.16985883  .00009997  00000-0  88909-3 0  9996
2 48269  97.6754 124.6057 0003398 171.5758 188.5521 14.96280625153733
0 LEMUR 2 AMANDA-SVANTE
1 48269U 21034B   24057.70484865  .00009951  00000-0  88478-3 0  9991
2 48269  97.6752 125.1304 0003459 170.1533 189.9757 14.96291176153814
0 LEMUR 2 AMANDA-SVANTE
1 48269U 21034B   24058.17296236  .00009455  00000-0  84085-3 0  9995
2 48269  97.6750 125.5894 0003515 168.4161 191.7142 14.96299076153883
0 LEMUR 2 AMANDA-SVANTE
1 48269U 21034B   24058.90856465  .00007617  00000-0  67838-3 0  9997
2 48269  97.6746 126.3108 0003594 166.5807 193.5510 14.96308870153992
0 LEMUR 2 AMANDA-SVANTE
1 48269U 21034B   24059.17605501  .00007662  00000-0  68222-3 0  9998
2 48269  97.6746 126.5731 0003618 165.8719 194.2604 14.96313414154035
0 LEMUR 2 AMANDA-SVANTE
1 48269U 21034B   24059.44354462  .00007722  00000-0  68748-3 0  9995
2 48269  97.6745 126.8354 0003653 164.8787 195.2544 14.96317642154076
0 LEMUR 2 AMANDA-SVANTE
1 48269U 21034B   24059.71103399  .00006687  00000-0  59603-3 0  9995
2 48269  97.6743 127.0977 0003682 164.3409 195.7927 14.96319908154118
0 LEMUR 2 AMANDA-SVANTE
1 48269U 21034B   24060.17913863  .00006356  00000-0  56674-3 0  9990
2 48269  97.6742 127.5567 0003711 163.2192 196.9152 14.96325634154180
0 LEMUR 2 AMANDA-SVANTE
1 48269U 21034B   24060.44662616  .00006618  00000-0  58982-3 0  9992
2 48269  97.6742 127.8190 0003754 162.2606 197.8747 14.96329408154229
0 LEMUR 2 AMANDA-SVANTE
1 48269U 21034B   24060.71411319  .00006419  00000-0  57216-3 0  9992
2 48269  97.6741 128.0812 0003782 161.4107 198.7253 14.96332643154261
0 LEMUR 2 AMANDA-SVANTE
1 48269U 21034B   24061.18221385  .00006619  00000-0  58977-3 0  9993
2 48269  97.6740 128.5404 0003834 159.8571 200.2802 14.96338895154338
0 LEMUR 2 AMANDA-SVANTE
1 48269U 21034B   24061.44969902  .00007308  00000-0  65051-3 0  9993
2 48269  97.6740 128.8027 0003869 158.9410 201.1972 14.96343353154379
0 LEMUR 2 AMANDA-SVANTE
1 48269U 21034B   24061.71718334  .00007613  00000-0  67732-3 0  9991
2 48269  97.6739 129.0650 0003889 158.1486 201.9902 14.96347804154410
0 LEMUR 2 AMANDA-SVANTE
1 48269U 21034B   24062.18527933  .00007911  00000-0  70347-3 0  9993
2 48269  97.6739 129.5241 0003937 156.4080 203.7322 14.96354968154488
0 LEMUR 2 AMANDA-SVANTE
1 48269U 21034B   24062.72024318  .00008224  00000-0  73088-3 0  9995
2 48269  97.6739 130.0485 0004011 153.9146 206.2278 14.96363924154563
0 LEMUR 2 AMANDA-SVANTE
1 48269U 21034B   24063.18833401  .00007825  00000-0  69557-3 0  9999
2 48269  97.6738 130.5076 0004056 152.1093 208.0347 14.96370793154631
0 LEMUR 2 AMANDA-SVANTE
1 48269U 21034B   24063.45581336  .00008642  00000-0  76752-3 0  9999
2 48269  97.6739 130.7700 0004091 151.2282 208.9166 14.96376248154670
0 LEMUR 2 AMANDA-SVANTE
1 48269U 21034B   24063.72329208  .00008145  00000-0  72366-3 0  9992
2 48269  97.6739 131.0324 0004140 149.6450 210.5012 14.96379989154718
0 LEMUR 2 AMANDA-SVANTE
1 48269U 21034B   24064.19137538  .00011177  00000-0  99036-3 0  9999
2 48269  97.6739 131.4914 0004158 148.3953 211.7518 14.96394655154788
0 LEMUR 2 AMANDA-SVANTE
1 48269U 21034B   24064.92692882  .00009496  00000-0  84204-3 0  9990
2 48269  97.6741 132.2129 0004243 145.7859 214.3637 14.96408837154890
0 LEMUR 2 AMANDA-SVANTE
1 48269U 21034B   24065.12753284  .00009186  00000-0  81463-3 0  9997
2 48269  97.6742 132.4097 0004236 145.4669 214.6829 14.96413200154925
0 LEMUR 2 AMANDA-SVANTE
1 48269U 21034B   24065.72934087  .00009020  00000-0  79970-3 0  9992
2 48269  97.6743 132.9999 0004279 143.5307 216.6207 14.96428232155011
0 LEMUR 2 AMANDA-SVANTE
1 48269U 21034B   24066.13054373  .00010022  00000-0  88766-3 0  9996
2 48269  97.6744 133.3934 0004316 142.0697 218.0830 14.96437763155077
0 LEMUR 2 AMANDA-SVANTE
1 48269U 21034B   24066.73234400  .00010391  00000-0  91984-3 0  9998
2 48269  97.6745 133.9836 0004335 140.7944 219.3592 14.96450017155162
0 LEMUR 2 AMANDA-SVANTE
1 48269U 21034B   24067.46787227  .00009111  00000-0  80708-3 0  9999
2 48269  97.6746 134.7050 0004434 137.7588 222.3975 14.96461681155270
0 LEMUR 2 AMANDA-SVANTE
1 48269U 21034B   24068.13652806  .00009787  00000-0  86618-3 0  9993
2 48269  97.6748 135.3610 0004417 136.3892 223.7679 14.96475368155379
0 LEMUR 2 AMANDA-SVANTE
1 48269U 21034B   24068.47085365  .00009953  00000-0  88062-3 0  9990
2 48269  97.6749 135.6889 0004456 135.4458 224.7122 14.96482079155429
0 LEMUR 2 AMANDA-SVANTE
1 48269U 21034B   24069.13950071  .00008858  00000-0  78416-3 0  9994
2 48269  97.6748 136.3446 0004442 133.1926 226.9668 14.96493501155527
0 LEMUR 2 AMANDA-SVANTE
1 48269U 21034B   24070.14245983  .00009147  00000-0  80910-3 0  9990
2 48269  97.6747 137.3283 0004396 131.1523 229.0078 14.96513715155670
0 LEMUR 2 AMANDA-SVANTE
1 48269U 21034B   24071.14540714  .00007966  00000-0  70510-3 0  9993
2 48269  97.6747 138.3127 0004444 129.3781 230.7835 14.96530111155823
0 LEMUR 2 AMANDA-SVANTE
1 48269U 21034B   24072.14834332  .00007066  00000-0  62586-3 0  9991
2 48269  97.6743 139.2968 0004485 126.8478 233.3155 14.96545700155972
0 LEMUR 2 AMANDA-SVANTE
1 48269U 21034B   24072.61637730  .00006665  00000-0  59057-3 0  9999
2 48269  97.6739 139.7556 0004419 126.0298 234.1334 14.96551937156040
0 LEMUR 2 AMANDA-SVANTE
1 48269U 21034B   24073.15127017  .00006804  00000-0  60265-3 0  9999
2 48269  97.6737 140.2804 0004370 125.8284 234.3344 14.96559835156126
0 LEMUR 2 AMANDA-SVANTE
1 48269U 21034B   24073.61929930  .00007394  00000-0  65432-3 0  9990
2 48269  97.6735 140.7397 0004353 124.8857 235.2774 14.96567555156194
0 LEMUR 2 AMANDA-SVANTE
1 48269U 21034B   24074.15418699  .00006957  00000-0  61580-3 0  9999
2 48269  97.6732 141.2645 0004282 123.3949 236.7683 14.96574831156279
0 LEMUR 2 AMANDA-SVANTE
1 48269U 21034B   24074.75593189  .00007348  00000-0  65000-3 0  9999
2 48269  97.6721 141.8542 0004315 122.5380 237.6259 14.96584857156364
0 LEMUR 2 AMANDA-SVANTE
1 48269U 21034B   24075.15709299  .00007709  00000-0  68150-3 0  9995
2 48269  97.6718 142.2472 0004346 121.9214 238.2431 14.96591827156421
0 LEMUR 2 AMANDA-SVANTE
1 48269U 21034B   24076.15998945  .00006083  00000-0  53878-3 0  9999
2 48269  97.6707 143.2289 0004284 119.0706 241.0945 14.96604208156577
0 LEMUR 2 AMANDA-SVANTE
1 48269U 21034B   24076.76172315  .00006174  00000-0  54666-3 0  9998
2 48269  97.6713 143.8207 0004194 119.1430 241.0211 14.96612236156661
0 LEMUR 2 AMANDA-SVANTE
1 48269U 21034B   24077.16287683  .00005918  00000-0  52415-3 0  9993
2 48269  97.6712 144.2142 0004124 118.7317 241.4320 14.96617419156725
0 LEMUR 2 AMANDA-SVANTE
1 48269U 21034B   24077.76460553  .00005884  00000-0  52108-3 0  9999
2 48269  97.6712 144.8045 0004082 117.6924 242.4712 14.96624768156819
0 LEMUR 2 AMANDA-SVANTE
1 48269U 21034B   24078.16575609  .00005635  00000-0  49919-3 0  9993
2 48269  97.6710 145.1980 0004062 117.2157 242.9479 14.96629555156871
0 LEMUR 2 AMANDA-SVANTE
1 48269U 21034B   24078.63376303  .00006829  00000-0  60362-3 0  9996
2 48269  97.6710 145.6571 0004046 116.2454 243.9184 14.96637909156947
0 LEMUR 2 AMANDA-SVANTE
1 48269U 21034B   24079.16862539  .00008975  00000-0  79130-3 0  9993
2 48269  97.6711 146.1819 0004035 114.8513 245.3128 14.96648962157022
0 LEMUR 2 AMANDA-SVANTE
1 48269U 21034B   24080.50576205  .00011075  00000-0  97422-3 0  9994
2 48269  97.6711 147.4938 0004048 112.6978 247.4672 14.96679102157222
0 LEMUR 2 AMANDA-SVANTE
1 48269U 21034B   24080.90689737  .00011937  00000-0  10493-2 0  9992
2 48269  97.6709 147.8871 0004056 113.2293 246.9356 14.96689509157286
0 LEMUR 2 AMANDA-SVANTE
1 48269U 21034B   24081.17431940  .00011740  00000-0  10319-2 0  9992
2 48269  97.6709 148.1493 0004052 112.9098 247.2552 14.96695873157323
